{
    "links": {
        "self": "http://www.neowsapp.com/rest/v1/neo/3781309?api_key=iIulBulltgU6a56xZRHN4H3l9WmuAYTsLGpBGhQ2"
    },
    "id": "3781309",
    "neo_reference_id": "3781309",
    "name": "(2017 QU35)",
    "designation": "2017 QU35",
    "nasa_jpl_url": "http://ssd.jpl.nasa.gov/sbdb.cgi?sstr=3781309",
    "absolute_magnitude_h": 24.1,
    "estimated_diameter": {
        "kilometers": {
            "estimated_diameter_min": 0.040230458,
            "estimated_diameter_max": 0.0899580388
        },
        "meters": {
            "estimated_diameter_min": 40.2304579834,
            "estimated_diameter_max": 89.9580388169
        },
        "miles": {
            "estimated_diameter_min": 0.0249980399,
            "estimated_diameter_max": 0.0558973165
        },
        "feet": {
            "estimated_diameter_min": 131.9896957704,
            "estimated_diameter_max": 295.1379320721
        }
    },
    "is_potentially_hazardous_asteroid": false,
    "close_approach_data": [
        {
            "close_approach_date": "2017-07-23",
            "close_approach_date_full": "2017-Jul-23 03:02",
            "epoch_date_close_approach": 1500778920000,
            "relative_velocity": {
                "kilometers_per_second": "6.1281052957",
                "kilometers_per_hour": "22061.1790646979",
                "miles_per_hour": "13707.9587360619"
            },
            "miss_distance": {
                "astronomical": "0.1160485533",
                "lunar": "45.1428872337",
                "kilometers": "17360616.390261471",
                "miles": "10787386.8071354598"
            },
            "orbiting_body": "Earth"
        }
    ],
    "orbital_data": {
        "orbit_id": "1",
        "orbit_determination_date": "2017-09-02 15:42:09",
        "first_observation_date": "2017-08-31",
        "last_observation_date": "2017-09-02",
        "data_arc_in_days": 2,
        "observations_used": 12,
        "orbit_uncertainty": "9",
        "minimum_orbit_intersection": ".103103",
        "jupiter_tisserand_invariant": "3.579",
        "epoch_osculation": "2457997.5",
        "eccentricity": ".4806644033166376",
        "semi_major_axis": "2.105896847302676",
        "inclination": "6.772922968961217",
        "ascending_node_longitude": "156.673104373494",
        "orbital_period": "1116.230971488721",
        "perihelion_distance": "1.093667195747547",
        "perihelion_argument": "141.238041644333",
        "aphelion_distance": "3.118126498857805",
        "perihelion_time": "2457953.041957903995",
        "mean_anomaly": "14.3383363867928",
        "mean_motion": ".3225138964921093",
        "equinox": "J2000",
        "orbit_class": {
            "orbit_class_type": "AMO",
            "orbit_class_description": "Near-Earth asteroid orbits similar to that of 1221 Amor",
            "orbit_class_range": "1.017 AU < q (perihelion) < 1.3 AU"
        }
    },
    "is_sentry_object": false
}